_id,id,name,equipment_type,manufacturer,safety_surface_type,ada_accessible,street_number,street,neighborhood,council_district,ward,tract,public_works_division,pli_division,police_zone,fire_zone,latitude,longitude
316,87059691,Able Long Playground,Spring Toy - Turtle,Little Tykes,,f,211,Coast Ave,Beechview,4,19,42003192000,5,19,6,4-28,40.40840184,-80.02850781
112,1511493492,Able Long Playground,Play Area 5 to 12,Little Tykes,Pour in Place,f,211,Coast Ave,Beechview,4,19,42003192000,5,19,6,4-28,40.40836153,-80.02842606
223,277523687,Able Long Playground,Spring Toy - Dragon,Little Tykes,,f,211,Coast Ave,Beechview,4,19,42003192000,5,19,6,4-28,40.40836339,-80.02850653
1,1780722587,Able Long Playground,Play Area 2 to 5,Little Tykes,Pour in Place,f,211,Coast Ave,Beechview,4,19,42003192000,5,19,6,4-28,40.4083811,-80.02851994
349,1312744601,Albert Graham Playground,Play Area 5 to 12,Playworld,Pour in Place,f,,Foreside Pl,Crawford-Roberts,6,3,42003030500,3,3,2,2-1,40.44063111,-79.98417473
327,1528925530,Albert Graham Playground,Swing 2 Bays,Playworld,Pour in Place,t,,Foreside Pl,Crawford-Roberts,6,3,42003030500,3,3,2,2-1,40.44040909,-79.98407301
338,1744087688,Albert Graham Playground,Play Area 2 to 5,Playworld,Pour in Place,f,,Foreside Pl,Crawford-Roberts,6,3,42003030500,3,3,2,2-1,40.44053777,-79.98410253
101,1039782373,Alpine Playground,Play Area 2 to 12,Playworld,Pour in Place,f,,Alpine Ave,Central Northside,6,25,42003250300,1,25,1,1-21,40.45770984,-80.01299454
124,919996438,Alton Playground,Swing 2 Bays,Playworld,SofSurfaces,f,,Andick Way,Beechview,4,19,42003191600,5,19,6,4-28,40.41416804,-80.02193704
135,898831062,Alton Playground,Play Area 2 to 5,Playworld,SofSurfaces,f,,Andick Way,Beechview,4,19,42003191600,5,19,6,4-28,40.41417215,-80.02160975
146,1468332873,Alton Playground,Play Area 5 to 12,Playworld,SofSurfaces,f,,Andick Way,Beechview,4,19,42003191600,5,19,6,4-28,40.4141373,-80.0218378
113,331915417,Alton Playground,Swing 2 Bays,Playworld,SofSurfaces,t,,Andick Way,Beechview,4,19,42003191600,5,19,6,4-28,40.41413279,-80.02170509
179,1708924085,Ammon Playground,Play Area 5 to 12,Playworld,Tiles,f,2217,Bedford Ave,Bedford Dwellings,6,5,42003050900,3,5,2,2-5,40.44904659,-79.97811651
157,390955760,Ammon Playground,Swing 3 Bays,Playworld,Tiles,t,2217,Bedford Ave,Bedford Dwellings,6,5,42003050900,3,5,2,2-5,40.44897281,-79.97802318
168,1165544030,Ammon Playground,Play Area 2 to 5,Park Structures,Tiles,f,2217,Bedford Ave,Bedford Dwellings,6,5,42003050900,3,5,2,2-5,40.44907155,-79.97805653
190,561097535,Arlington Playground,Swing 3 Bays,Playworld,Pour in Place,t,1610,Sterling St,South Side Slopes,3,16,42003160800,3,16,3,4-22,40.41817128,-79.9755344
212,1066827082,Arlington Playground,Play Area 5 to 12,Playworld,Pour in Place,f,,Esop Way,South Side Slopes,3,16,42003160800,3,16,3,4-22,40.4180396,-79.9755219
201,727829424,Arlington Playground,Play Area 2 to 5,Playworld,Pour in Place,f,1509,Fernleaf St,South Side Slopes,3,16,42003160800,3,16,3,4-22,40.41808693,-79.97564858
224,2057742379,Armstrong Playground,Swing 3 Bays,Playworld,SofSurfaces,t,81,S 12th St,South Side Flats,3,17,42003170200,3,17,3,4-24,40.4281679,-79.98625805
235,464653208,Armstrong Playground,Play Area 5 to 12,Playworld,SofSurfaces,f,,Carson St,South Side Flats,3,17,42003170200,3,17,3,4-24,40.42821987,-79.98613126
257,40916685,Arsenal Playground,Play Area 2 to 12,Little Tykes,SofSurfaces,f,258,40th St,Lower Lawrenceville,7,6,42003060300,2,6,2,3-3,40.46686067,-79.96141434
246,251472869,Arsenal Playground,Swing 4 Bays,Little Tykes,SofSurfaces,t,253,39th St,Lower Lawrenceville,7,6,42003060300,2,6,2,3-3,40.46672012,-79.96152431
268,88365768,August WIlson Playground,Play Area 5 to 12,Playworld,SofSurfaces,f,,Cassatt St,Crawford-Roberts,6,3,42003030500,3,3,2,2-1,40.44647516,-79.98597556
279,441352688,Banksville Playground,Swing 3 Bays,Little Tykes,SofSurfaces,t,,,Banksville,2,20,42003202300,5,20,6,4-9,40.4147023,-80.03918365
290,1426950338,Banksville Playground,Play Area 2 to 5,Little Tykes,SofSurfaces,f,,,Banksville,2,20,42003202300,5,20,6,4-9,40.41459126,-80.03930799
301,959662449,Banksville Playground,Play Area 5 to 12,Little Tykes,SofSurfaces,f,,,Banksville,2,20,42003202300,5,20,6,4-9,40.41471541,-80.03940895
317,1717619694,Banksville Playground,Spring Toy - Bunny,Little Tykes,SofSurfaces,f,,,Banksville,2,20,42003202300,5,20,6,4-9,40.41461144,-80.03938213
315,786184377,Banksville Playground,Spring Toy - Turtle,Little Tykes,SofSurfaces,f,,,Banksville,2,20,42003202300,5,20,6,4-9,40.41457183,-80.03936242
312,1397126148,Banksville Playground,Whirl,Gametime,SofSurfaces,f,,,Banksville,2,20,42003202300,5,20,6,4-9,40.41478038,-80.03942114
661,1356539327,Baxter Playground,Geo Climber,Playworld,SofSurfaces,f,7614,Forest Way,Homewood North,9,13,42003130200,2,13,5,3-17,40.45607203,-79.88945625
318,155164086,Baxter Playground,Swing 3 Bays,Playworld,SofSurfaces,t,908,N Braddock Ave,Homewood North,9,13,42003130200,2,13,5,3-17,40.45609623,-79.8896444
319,1143857646,Baxter Playground,Play Area 2 to 5,Playworld,SofSurfaces,f,7601,Frankstown Ave,Homewood North,9,13,42003130200,2,13,5,3-17,40.45606775,-79.88954134
320,25672402,Baxter Playground,Play Area 5 to 12,Playworld,SofSurfaces,f,912,N Braddock Ave,Homewood North,9,13,42003130200,2,13,5,3-17,40.4562801,-79.88956369
351,1258824186,Bon Air Playground,Play Area 2 to 5,Playworld,SofSurfaces,f,320,Calle St,Bon Air,4,18,42003562400,5,18,3,4-7,40.40756428,-80.0001511
350,807166944,Bon Air Playground,Swing 3 Bays,Playworld,SofSurfaces,t,356,Calle St,Bon Air,4,18,42003562400,5,18,3,4-7,40.40755462,-80.00005235
352,581161980,Bon Air Playground,Play Area 5 to 12,Playworld,SofSurfaces,f,320,Calle St,Bon Air,4,18,42003562400,5,18,3,4-7,40.4075993,-80.00024937
145,1534788211,Boundary Street Playground,Swing 2 Bays,Playworld,Tiles,f,,Boundary St,Central Oakland,3,4,42003040600,3,4,4,2-11,40.43854154,-79.95025959
147,305965506,Boundary Street Playground,Play Area 2 to 12,Playworld,Tiles,f,,Boundary St,Central Oakland,3,4,42003040600,3,4,4,2-11,40.43849144,-79.95039126
171,1927765426,Brighton Heights Playground,Play Area 5 to 12,Little Tykes,Pour in Place,f,,Weitz Way,Brighton Heights,1,27,42003270800,1,27,1,1-14,40.48666605,-80.03189913
172,2068967362,Brighton Heights Playground,Play Area 2 to 5,Little Tykes,Pour in Place,f,,Weitz Way,Brighton Heights,1,27,42003270800,1,27,1,1-14,40.48676063,-80.03191376
170,1178754234,Brighton Heights Playground,Swing 3 Bays,Little Tykes,Pour in Place,t,1144,W Point Ave,Brighton Heights,1,27,42003270800,1,27,1,1-14,40.48659743,-80.0318333
127,1101703588,Brookline Playground,Swing 4 Bays,Little Tykes,Pour in Place,f,,Doric Way,Brookline,4,32,42003320600,5,32,6,4-26,40.39159623,-80.00841402
130,1286022354,Brookline Playground,Spring Toy - Bulldozer,Little Tykes,Pour in Place,f,,Doric Way,Brookline,4,32,42003320600,5,32,6,4-26,40.39148144,-80.00831016
129,114157007,Brookline Playground,Play Area 5 to 12,Little Tykes,Pour in Place,f,,Doric Way,Brookline,4,32,42003320600,5,32,6,4-26,40.39155821,-80.00818483
128,735226654,Brookline Playground,Play Area 2 to 5,Little Tykes,Pour in Place,f,,Doric Way,Brookline,4,32,42003320600,5,32,6,4-26,40.39143998,-80.00823847
173,1580680377,Bud Hammer Playground,Play Area 5 to 12,Little Tykes,Pour in Place,f,114,Bigelow St,Hazelwood,5,15,42003562900,3,15,4,2-12,40.42179474,-79.94727507
174,1033425332,Bud Hammer Playground,Play Area 2 to 5,Little Tykes,Pour in Place,f,132,Bigelow St,Hazelwood,5,15,42003562900,3,15,4,2-12,40.4216005,-79.94698808
175,1420904227,Bud Hammer Playground,Swing 3 Bays,Little Tykes,Pour in Place,f,122,Bigelow St,Hazelwood,5,15,42003562900,3,15,4,2-12,40.4215104,-79.94723484
178,1431648344,Burgwin Playground,Play Area 5 to 12,Playworld,SofSurfaces,f,608,Johnston Ave,Hazelwood,5,15,42003562300,3,15,4,2-13,40.40487428,-79.93642374
176,2049027929,Burgwin Playground,Swing 2 Bays,Playworld,SofSurfaces,t,602,Johnston Ave,Hazelwood,5,15,42003562300,3,15,4,2-13,40.40472977,-79.93662076
177,249692608,Burgwin Playground,Play Area 2 to 5,Playworld,SofSurfaces,f,606,Johnston Ave,Hazelwood,5,15,42003562300,3,15,4,2-13,40.4049644,-79.93643032
263,763536612,Camp David Lawrence Playground,Play Area 5 to 12,Big Toys,SofSurfaces,f,,Overlook Dr,Squirrel Hill South,5,14,42003980500,3,14,4,2-8,40.43306862,-79.94577761
182,1544576950,Catalono Playground,Play Area 5 to 12,Playworld,SofSurfaces,f,,Arcola Way,Spring Garden,1,24,42003241200,1,24,1,1-5,40.4602643,-79.99196715
180,705169870,Catalono Playground,Swing 2 Bays,Playworld,SofSurfaces,t,1130,Spring Garden Ave,Spring Garden,1,24,42003241200,1,24,1,1-5,40.46024471,-79.99209565
181,1289088838,Catalono Playground,Play Area 2 to 5,Playworld,SofSurfaces,f,,Arcola Way,Spring Garden,1,24,42003241200,1,24,1,1-5,40.46020957,-79.99195618
150,607358832,Chadwick Playground,Play Area 2 to 5,Playworld,SofSurfaces,f,7239,Gladefield St,Lincoln-Lemington-Belmar,9,12,42003561900,2,12,5,3-18,40.46517432,-79.89057451
148,155768913,Chadwick Playground,Swing 3 Bays,Playworld,SofSurfaces,t,,Oberlin St,Lincoln-Lemington-Belmar,9,12,42003561900,2,12,5,3-18,40.46518774,-79.89026996
149,1420223098,Chadwick Playground,Play Area 2 to 12,Playworld,SofSurfaces,f,7255,Gladefield St,Lincoln-Lemington-Belmar,9,12,42003561900,2,12,5,3-18,40.46517265,-79.89042919
8,1838217886,Chartiers Playground,Play Area 2 to 5,Little Tykes,SofSurfaces,f,3789,Chartiers Ave,Windgap,2,28,42003563000,5,28,6,1-16,40.45732948,-80.07514536
10,1603952265,Chartiers Playground,Whirl,,SofSurfaces,f,1548,Summerdale St,Windgap,2,28,42003563000,5,28,6,1-16,40.45697029,-80.0751105
7,1387089430,Chartiers Playground,Swing 2 Bays,Little Tykes,SofSurfaces,t,3783,Chartiers Ave,Windgap,2,28,42003563000,5,28,6,1-16,40.45721835,-80.07507026
9,1315630398,Chartiers Playground,Play Area 5 to 12,Little Tykes,SofSurfaces,f,1544,Summerdale St,Windgap,2,28,42003563000,5,28,6,1-16,40.45668138,-80.07501933
6,788191865,Chartiers Playground,Swing 2 Bays,Little Tykes,SofSurfaces,f,1550,Summerdale St,Windgap,2,28,42003563000,5,28,6,1-16,40.45681173,-80.07513098
302,1505186547,Cowley Playground,Swing 1 Bay,Playworld,SofSurfaces,f,1306,Truax Way,Troy Hill,1,24,42003240600,1,24,1,1-2,40.45895202,-79.98816757
300,413458922,Cowley Playground,Play Area 5 to 12,Playworld,SofSurfaces,f,1300,Truax Way,Troy Hill,1,24,42003240600,1,24,1,1-2,40.45880175,-79.98812611
299,2034812014,Cowley Playground,Play Area 2 to 5,Playworld,SofSurfaces,f,1300,Truax Way,Troy Hill,1,24,42003240600,1,24,1,1-2,40.45868486,-79.98809929
397,2024668652,Cowley Playground,Spinner - Cozy Cocoon,Playworld,SofSurfaces,f,1300,Truax Way,Troy Hill,1,24,42003240600,1,24,1,1-2,40.45884008,-79.98816607
131,1695605953,Crafton Heights Playground,Play Area 5 to 12,Playworld,Pour in Place,f,,Preston St,Westwood,2,28,42003563100,5,28,6,1-18,40.43612098,-80.05663483
132,1476594438,Crafton Heights Playground,Spring Toy - Motorcycle,Playworld,Pour in Place,f,,Preston St,Westwood,2,28,42003563100,5,28,6,1-18,40.43612469,-80.05657753
12,59873822,Cross and Strauss Playground,Play Area 5 to 12,Little Tykes,Pour in Place,f,,Cross St,Perry South,6,26,42003261400,1,26,1,1-12,40.46519648,-80.02001257
11,1811257536,Cross and Strauss Playground,Swing 2 Bays,Little Tykes,Pour in Place,t,,Cross St,Perry South,6,26,42003261400,1,26,1,1-12,40.465189,-80.0201731
14,171493185,Cross and Strauss Playground,Whirl,Gametime,Pour in Place,f,,Cross St,Perry South,6,26,42003261400,1,26,1,1-12,40.46508586,-80.02008678
185,498775181,Dallas Playground,Play Area 5 to 12,Playworld,SofSurfaces,f,,PA-380,Homewood West,9,12,42003120700,2,12,5,3-17,40.45789624,-79.90435567
186,1258920569,Dallas Playground,Whirl,Gametime,SofSurfaces,f,,PA-380,Homewood West,9,12,42003120700,2,12,5,3-17,40.45780902,-79.90439426
183,752023885,Dallas Playground,Swing 3 Bays,Playworld,SofSurfaces,t,707,PA-380,Homewood West,9,12,42003120700,2,12,5,3-17,40.45779582,-79.90456854
184,1473184891,Dallas Playground,Play Area 2 to 5,Playworld,SofSurfaces,f,,PA-380,Homewood West,9,12,42003120700,2,12,5,3-17,40.45780262,-79.90429935
134,535519142,Davis Playground,Play Area 2 to 5,Playworld,SofSurfaces,f,5700,Hobart St,Squirrel Hill South,5,14,42003141300,3,14,4,2-21,40.43241573,-79.92447114
137,323373270,Davis Playground,Spring Toy - Fire Truck,Playworld,SofSurfaces,f,5700,Hobart St,Squirrel Hill South,5,14,42003141300,3,14,4,2-21,40.43242747,-79.92458379
136,345195199,Davis Playground,Play Area 5 to 12,Playworld,SofSurfaces,f,5700,Hobart St,Squirrel Hill South,5,14,42003141300,3,14,4,2-21,40.43248285,-79.92459721
133,773385616,Davis Playground,Swing 3 Bays,Playworld,SofSurfaces,t,5700,Hobart St,Squirrel Hill South,5,14,42003141300,3,14,4,2-21,40.43230251,-79.92456136
371,606673652,Deer Pit Playground,Play Area 5 to 12,Playworld,Tiles,f,950,Brighton Rd,Allegheny Center,1,22,42003562700,1,22,1,1-7,40.45302644,-80.01354843
297,2052191583,Deer Pit Playground,Spring Toy - Fire Truck,,Tiles,f,944,Brighton Rd,Allegheny Center,1,22,42003562700,1,22,1,1-7,40.4529874,-80.01349211
360,884958247,Deer Pit Playground,Swing 2 Bays,Playworld,Tiles,t,954,Brighton Rd,Allegheny Center,1,22,42003562700,1,22,1,1-7,40.45303386,-80.01367035
187,244228477,Denny Playground,Play Area 2 to 5,Little Tykes,Pour in Place,f,2901,Liberty Ave,Strip District,7,6,42003020300,6,6,2,3-2,40.45771879,-79.97340645
191,1559081386,Dinan Playground,Play Area 5 to 12,Playworld,SofSurfaces,f,1503,Windcrest Dr,Stanton Heights,7,10,42003101800,2,10,5,3-7,40.48419974,-79.93294184
188,1805277464,Dinan Playground,Swing 3 Bays,Playworld,SofSurfaces,t,4746,Farmington Rd,Stanton Heights,7,10,42003101800,2,10,5,3-7,40.48411186,-79.93305644
189,1731484502,Dinan Playground,Play Area 2 to 5,Playworld,SofSurfaces,f,4742,Farmington Rd,Stanton Heights,7,10,42003101800,2,10,5,3-7,40.48423797,-79.93307595
15,991425686,Dunbar Playground,Swing 2 Bays,Playworld,Pour in Place,f,1201,Clairhaven St,Crafton Heights,2,28,42003281500,5,28,6,1-18,40.43940856,-80.05199613
17,993315166,Dunbar Playground,Play Area 5 to 12,Playworld,Pour in Place,f,1205,Clairhaven St,Crafton Heights,2,28,42003281500,5,28,6,1-18,40.43934706,-80.0520844
16,490747758,Dunbar Playground,Swing 2 Bays,Playworld,Pour in Place,t,1201,Clairhaven St,Crafton Heights,2,28,42003281500,5,28,6,1-18,40.43932108,-80.05189396
18,396180717,Dunbar Playground,Whirl,Gametime,Pour in Place,f,1205,Clairhaven St,Crafton Heights,2,28,42003281500,5,28,6,1-18,40.43927694,-80.05202003
595,1664348753,Duncan Park Playground,Slide,,,f,,Poe Way,Upper Lawrenceville,7,10,42003101100,2,10,2,3-5,40.48024695,-79.94846059
166,761840480,Dunseith Playground,Play Area 2 to 12,Playworld,SofSurfaces,f,274,Dunseith St,West Oakland,6,4,42003040200,3,4,4,2-10,40.4426223,-79.96488142
193,358317983,East Carnegie Playground,Play Area 5 to 12,Little Tykes,SofSurfaces,f,722,Doolittle St,East Carnegie,2,28,42003562800,5,28,6,1-19,40.41460495,-80.07507197
192,1185311965,East Carnegie Playground,Swing 2 Bays,Little Tykes,SofSurfaces,t,,Doolittle St,East Carnegie,2,28,42003562800,5,28,6,1-19,40.41467179,-80.07494517
313,212590140,Eileen McCoy Playground,Play Area 2 to 5,Playworld,SofSurfaces,f,239,Shaler St,Duquesne Heights,2,19,42003191100,5,19,3,4-1,40.43815715,-80.0245921
314,388834370,Eileen McCoy Playground,Play Area 5 to 12,Playworld,SofSurfaces,f,239,Shaler St,Duquesne Heights,2,19,42003191100,5,19,3,4-1,40.43823855,-80.02446603
496,87237764,Eileen McCoy Playground,Spinner - Cozy Cocoon,Playworld,SofSurfaces,f,1580,Greenleaf St,Duquesne Heights,2,19,42003191100,5,19,3,4-1,40.43808151,-80.02460802
311,498918949,Eileen McCoy Playground,Swing 3 Bays,Playworld,SofSurfaces,t,,Crooked Way,Duquesne Heights,2,19,42003191100,5,19,3,4-1,40.43807831,-80.02431482
195,1412828232,Eleanor St. Playground,Play Area 2 to 5,Playworld,Greenpark Breakfall,f,2314,Sierra St,South Side Slopes,3,16,42003160800,3,16,3,4-22,40.42152837,-79.97301912
196,911263581,Eleanor St. Playground,Play Area 5 to 12,Playworld,Greenpark Breakfall,f,,Eleanor St,South Side Slopes,3,16,42003160800,3,16,3,4-22,40.4215066,-79.97278845
194,987724718,Eleanor St. Playground,Swing 2 Bays,Playworld,Greenpark Breakfall,t,2317,Primrose St,South Side Slopes,3,16,42003160800,3,16,3,4-22,40.42134169,-79.9727053
89,71125023,Enright Playground,Swing 2 Bays,Little Tykes,Tiles,t,201,Amber St,East Liberty,9,8,42003111500,2,8,5,3-23,40.46221984,-79.93006789
92,77237815,Enright Playground,Play Area 2 to 5,Little Tykes,Greenpark Breakfall,f,201,Amber St,East Liberty,9,8,42003111500,2,8,5,3-23,40.46204843,-79.93011049
91,1571456862,Enright Playground,Swing 2 Bays,Little Tykes,Tiles,f,201,Amber St,East Liberty,9,8,42003111500,2,8,5,3-23,40.46207321,-79.92986672
93,6656162,Enright Playground,Geo Climber,Little Tykes,Greenpark Breakfall,f,201,Amber St,East Liberty,9,8,42003111500,2,8,5,3-23,40.46201144,-79.93003002
363,304541260,Eric Guy Kelly Playground,Play Area 5 to 12,Playworld,SofSurfaces,f,,Escolta St,Fairywood,2,28,42003563000,5,28,6,1-16,40.44872463,-80.08021145
362,263721064,Eric Guy Kelly Playground,Swing 2 Bays,Playworld,SofSurfaces,t,,Escolta St,Fairywood,2,28,42003563000,5,28,6,1-16,40.44863018,-80.08007366
364,1697389627,Eric Guy Kelly Playground,Spinner - Cozy Cocoon,Playworld,SofSurfaces,f,,Escolta St,Fairywood,2,28,42003563000,5,28,6,1-16,40.44868856,-80.08030849
365,71071854,Eric Guy Kelly Playground,Spinner - Cozy Cocoon,Playworld,SofSurfaces,f,,Escolta St,Fairywood,2,28,42003563000,5,28,6,1-16,40.44865189,-80.08024534
151,882642618,Esplen Playground,Swing 2 Bays,Playworld,Pour in Place,f,,Esplen Way,Esplen,2,20,42003562500,5,20,6,1-27,40.46067807,-80.05073246
152,258516633,Esplen Playground,Play Area 2 to 12,Playworld,Pour in Place,f,,Esplen Way,Esplen,2,20,42003562500,5,20,6,1-27,40.46075944,-80.05087456
210,1547793551,Farmhouse Playground,Swing 2 Bays,Playworld,Pour in Place,t,22,Farmhouse Dr,Highland Park,7,11,42003980100,2,11,5,3-9,40.47613935,-79.91344169
211,1245787448,Farmhouse Playground,Play Area 5 to 12,Playworld,Pour in Place,f,25,Farmhouse Dr,Highland Park,7,11,42003980100,2,11,5,3-9,40.47623907,-79.91363805
213,21193752,Farmhouse Playground,Play Area 2 to 5,Playworld,Pour in Place,f,18,Farmhouse Dr,Highland Park,7,11,42003980100,2,11,5,3-9,40.47598693,-79.91344761
205,321690169,Fifty-Seventh St Playground,Play Area 5 to 12,Playworld,Pour in Place,f,29,57th St,Upper Lawrenceville,7,10,42003101100,2,10,2,3-5,40.48605813,-79.9467796
204,920373706,Fifty-Seventh St Playground,Swing 2 Bays,Playworld,Pour in Place,f,33,57th St,Upper Lawrenceville,7,10,42003101100,2,10,2,3-5,40.48598024,-79.94674546
20,667031628,Fineview Playground,Play Area 2 to 5,Playworld,Greenpark Breakfall,f,63,Edenvale St,Fineview,1,25,42003250900,1,25,1,1-10,40.46194453,-80.0036026
21,29701547,Fineview Playground,Play Area 5 to 12,Playworld,Greenpark Breakfall,f,,Fineview Ave,Fineview,1,25,42003250900,1,25,1,1-10,40.46177399,-80.0035719
564,1899756286,Fineview Playground,Swing 1 Bay,,SofSurfaces,f,20,Edenvale St,Fineview,1,25,42003250900,1,25,1,1-10,40.46190225,-80.0035517
562,253354246,Fineview Playground,Swing 2 Bays,,SofSurfaces,t,20,Edenvale St,Fineview,1,25,42003250900,1,25,1,1-10,40.46177164,-80.00358261
565,976456604,Fineview Playground,Play Area 2 to 12,,SofSurfaces,f,20,Edenvale St,Fineview,1,25,42003250900,1,25,1,1-10,40.46171859,-80.00366704
22,1301583498,Fineview Playground,Whirl,Gametime,Greenpark Breakfall,f,63,Edenvale St,Fineview,1,25,42003250900,1,25,1,1-10,40.46189553,-80.00356468
19,595152426,Fineview Playground,Swing 2 Bays,Playworld,Greenpark Breakfall,t,,Fineview Ave,Fineview,1,25,42003250900,1,25,1,1-10,40.46171282,-80.00362089
563,356949123,Fineview Playground,Play Area 5 to 12,,SofSurfaces,f,20,Edenvale St,Fineview,1,25,42003250900,1,25,1,1-10,40.4619247,-80.00359602
466,161707294,Forbes and Braddock Playground,Play Area 5 to 12,,,f,628,S Braddock Ave,Regent Square,5,14,42003141000,3,14,4,2-16,40.43892502,-79.89829215
358,109376160,Forbes and Braddock Playground,Spinner - Spin Cup,Playworld,SofSurfaces,f,620,S Braddock Ave,Regent Square,5,14,42003141000,3,14,4,2-16,40.43917892,-79.8980196
357,562444175,Forbes and Braddock Playground,Balance Beam - Sidewalk,Playworld,SofSurfaces,f,646,S Braddock Ave,Regent Square,5,14,42003141000,3,14,4,2-16,40.43882776,-79.89823649
356,1620912910,Forbes and Braddock Playground,Whirl,Gametime,SofSurfaces,f,7286,Forbes Ave,Regent Square,5,14,42003141000,3,14,4,2-16,40.43932683,-79.89828148
355,1021549856,Forbes and Braddock Playground,Play Area 5 to 12,Playworld,SofSurfaces,f,7288,Forbes Ave,Regent Square,5,14,42003141000,3,14,4,2-16,40.43921889,-79.89816127
354,1424137185,Forbes and Braddock Playground,Swing 3 Bays,Miracle,SofSurfaces,t,646,S Braddock Ave,Regent Square,5,14,42003141000,3,14,4,2-16,40.43888438,-79.89804626
353,989980011,Forbes and Braddock Playground,Swing 3 Bays,Miracle,SofSurfaces,f,7282,Forbes Ave,Regent Square,5,14,42003141000,3,14,4,2-16,40.43913724,-79.89851824
359,771106673,Forbes and Braddock Playground,Spinner - Cozy Cocoon,Playworld,SofSurfaces,f,646,S Braddock Ave,Regent Square,5,14,42003141000,3,14,4,2-16,40.43880286,-79.89830391
361,2126251147,Forbes and Braddock Playground,Spinner - Cozy Cocoon,Playworld,SofSurfaces,f,646,S Braddock Ave,Regent Square,5,14,42003141000,3,14,4,2-16,40.43885977,-79.89818053
376,1443212185,Fort Pitt Playground,Climber - Wood,Big Toys,Engineered Wood Fiber,f,4998,Breesport St,Garfield,9,10,42003101600,2,10,5,3-4,40.46985818,-79.94185165
373,362102673,Fort Pitt Playground,Play Area 5 to 12,Big Toys,Engineered Wood Fiber,f,4998,Breesport St,Garfield,9,10,42003101600,2,10,5,3-4,40.46993071,-79.94176386
378,1634871392,Fort Pitt Playground,Climber - Loop,Big Toys,Engineered Wood Fiber,f,4998,Breesport St,Garfield,9,10,42003101600,2,10,5,3-4,40.46990827,-79.94188813
375,1488072973,Fort Pitt Playground,Spring Toy - Whale,Big Toys,Engineered Wood Fiber,f,4998,Breesport St,Garfield,9,10,42003101600,2,10,5,3-4,40.46999411,-79.94167011
374,204090106,Fort Pitt Playground,Spring Toy - Stand Up,Big Toys,Engineered Wood Fiber,f,4998,Breesport St,Garfield,9,10,42003101600,2,10,5,3-4,40.46988285,-79.94179475
377,63313797,Fort Pitt Playground,Climber - Uneven Bars,Big Toys,Engineered Wood Fiber,f,4998,Breesport St,Garfield,9,10,42003101600,2,10,5,3-4,40.46981228,-79.94194704
154,1634867838,Four Mile Run Playground,Swing 2 Bays,Burke,Pour in Place,t,,I-376 E,Greenfield,5,14,42003151600,3,14,4,2-12,40.42800238,-79.94834758
153,1408642721,Four Mile Run Playground,Play Area 2 to 5,Burke,Pour in Place,f,305,Four Mile Run Rd,Greenfield,5,14,42003151600,3,14,4,2-12,40.42795797,-79.94851377
155,2113051415,Four Mile Run Playground,Play Area 2 to 12,Burke,Pour in Place,f,305,Four Mile Run Rd,Greenfield,5,14,42003151600,3,14,4,2-12,40.42784366,-79.94847456
206,1754507195,Frazier Playground,Play Area 5 to 12,Playworld,SofSurfaces,f,3724,Frazier St,South Oakland,3,4,42003040900,3,4,4,2-11,40.42918471,-79.95403022
207,1150828691,Frazier Playground,Swing 2 Bays,Playworld,SofSurfaces,t,3724,Frazier St,South Oakland,3,4,42003040900,3,4,4,2-11,40.42927751,-79.95394
298,1555828414,Frazier Playground,Play Area 2 to 5,,,f,3724,Frazier St,South Oakland,3,4,42003040900,3,4,4,2-11,40.42924366,-79.95399937
334,1177913737,Frick Beechwood Playground,Play Area 2 to 5,Playworld,SofSurfaces,f,,,Squirrel Hill South,5,14,42003980300,3,14,4,2-21,40.43007681,-79.91513835
333,1202587952,Frick Beechwood Playground,Swing 2 Bays,Playworld,SofSurfaces,t,2515,Beechwood Blvd,Squirrel Hill South,5,14,42003980300,3,14,4,2-21,40.4300101,-79.91515805
335,1874626845,Frick Beechwood Playground,Play Area 5 to 12,Playworld,SofSurfaces,f,6519,English Ln,Squirrel Hill South,5,14,42003980300,3,14,4,2-21,40.43008703,-79.91475268
336,1984839926,Frick Beechwood Playground,Geo Climber,,Pour in Place,f,6515,English Ln,Squirrel Hill South,5,14,42003980300,3,14,4,2-21,40.42991961,-79.91491995
337,458111524,Frick Beechwood Playground,Slide,,Pour in Place,f,6517,English Ln,Squirrel Hill South,5,14,42003980300,3,14,4,2-21,40.4299816,-79.91483071
465,56170095,Frick Beechwood Playground,Play Area 2 to 12,,,f,6519,English Ln,Squirrel Hill South,5,14,42003980300,3,14,4,2-21,40.43004412,-79.91457308
332,401293670,Frick Beechwood Playground,Swing 3 Bays,Playworld,SofSurfaces,f,6513,English Ln,Squirrel Hill South,5,14,42003980300,3,14,4,2-21,40.42999311,-79.91497164
96,1631282677,Garland Playground,Play Area 2 to 5,Playworld,Pour in Place,f,133,N Euclid Ave,East Liberty,9,11,42003111500,2,11,5,3-8,40.4634365,-79.9279099
94,1798909805,Garland Playground,Swing 2 Bays,Playworld,Pour in Place,f,,N St Clair St,East Liberty,9,11,42003111500,2,11,5,3-8,40.4636062,-79.92810251
97,1766022281,Garland Playground,Play Area 5 to 12,Playworld,Pour in Place,f,,N St Clair St,East Liberty,9,11,42003111500,2,11,5,3-8,40.46345368,-79.92819153
95,362704752,Garland Playground,Swing 2 Bays,Playworld,Pour in Place,t,133,N Euclid Ave,East Liberty,9,11,42003111500,2,11,5,3-8,40.46330708,-79.92789061
85,1122053830,Grandview Playground,Swing 2 Bays,Gametime,Pour in Place,f,745,McLain St,Allentown,3,18,42003180300,5,18,3,4-5,40.42487439,-79.99406145
88,641391917,Grandview Playground,Play Area 5 to 12,Gametime,Pour in Place,f,745,McLain St,Allentown,3,18,42003180300,5,18,3,4-5,40.42468088,-79.99393725
87,726342458,Grandview Playground,Play Area 2 to 5,Gametime,Pour in Place,f,745,McLain St,Allentown,3,18,42003180300,5,18,3,4-5,40.42469623,-79.99376373
86,1277997115,Grandview Playground,Swing 1 Bay,Gametime,Pour in Place,t,745,McLain St,Allentown,3,18,42003180300,5,18,3,4-5,40.42478633,-79.99379592
158,1563586430,Granville Playground,Play Area 2 to 12,Playworld,SofSurfaces,f,175,Granville St,Crawford-Roberts,6,3,42003030500,3,3,2,2-1,40.44456799,-79.98302769
727,1301777506,Granville Playground,Play Area 2 to 5,Playworld,SofSurfaces,f,175,Granville St,Crawford-Roberts,6,3,42003030500,3,3,2,2-1,40.44448327,-79.98307396
156,1798758589,Granville Playground,Swing 3 Bays,Playworld,SofSurfaces,t,,Granville St,Crawford-Roberts,6,3,42003030500,3,3,2,2-1,40.44448875,-79.98289861
728,1828281616,Granville Playground,Geo Climber,Playworld,SofSurfaces,f,175,Granville St,Crawford-Roberts,6,3,42003030500,3,3,2,2-1,40.44458227,-79.983082
138,1974439658,Hays Playground,Swing 2 Bays,Iron Mountain Forge,Pour in Place,f,26,Hillburn St,Hays,5,31,42003562900,3,31,4,4-20,40.38343895,-79.93171711
140,1374804864,Hays Playground,Spring Toy - Bulldozer,,Pour in Place,f,32,Hillburn St,Hays,5,31,42003562900,3,31,4,4-20,40.38349695,-79.93194988
139,1013833438,Hays Playground,Play Area 5 to 12,Iron Mountain Forge,Pour in Place,f,,Mifflin Rd,Hays,5,31,42003562900,3,31,4,4-20,40.38352439,-79.9319195
308,63279669,Herschel Playground,Swing 3 Bays,Playworld,SofSurfaces,t,851,Herschel St,Elliott,2,20,42003562600,5,20,6,1-17,40.4403499,-80.04345842
309,1791862528,Herschel Playground,Play Area 2 to 12,Playworld,SofSurfaces,f,839,Herschel St,Elliott,2,20,42003562600,5,20,6,1-17,40.44025262,-80.04334054
208,1402822218,Heth's Playground,Swing 3 Bays,Little Tykes,SofSurfaces,t,5423,Hampton St,Morningside,7,10,42003101400,2,10,5,3-7,40.47681856,-79.92824468
209,1686395783,Heth's Playground,Play Area 2 to 5,Little Tykes,SofSurfaces,f,5421,Hampton St,Morningside,7,10,42003101400,2,10,5,3-7,40.47699291,-79.92820566
99,1863163624,Highland Park Super Playground,Swing 2 Bays,,Engineered Wood Fiber,f,,Reservoir Dr,Highland Park,7,11,42003980100,2,11,5,3-9,40.48034991,-79.91843203
100,178081393,Highland Park Super Playground,Play Area 2 to 12,,Engineered Wood Fiber,f,,Reservoir Dr,Highland Park,7,11,42003980100,2,11,5,3-9,40.48051257,-79.91827439
98,1118649743,Highland Park Super Playground,Swing 1 Bay,,Engineered Wood Fiber,f,,Reservoir Dr,Highland Park,7,11,42003980100,2,11,5,3-9,40.48031141,-79.91815835
160,744109908,Jefferson Playground,Play Area 2 to 12,Little Tykes,Pour in Place,f,,Ehlers Way,Central Northside,6,25,42003250300,1,25,1,1-21,40.45916747,-80.01459145
159,837839427,Jefferson Playground,Swing 1 Bay,Little Tykes,Pour in Place,f,,Ehlers Way,Central Northside,6,25,42003250300,1,25,1,1-21,40.4593707,-80.01459145
161,1951469001,Jefferson Playground,Play Area 2 to 5,Little Tykes,Pour in Place,f,,Ehlers Way,Central Northside,6,25,42003250300,1,25,1,1-21,40.45933456,-80.01469213
220,694005584,Joe Natoli Playground,Swing 4 Bays,Playworld,SofSurfaces,t,1720,Chislett St,Morningside,7,10,42003101400,2,10,5,3-7,40.48449446,-79.92627735
219,141768444,Joe Natoli Playground,Play Area 2 to 5,Playworld,SofSurfaces,f,1730,Chislett St,Morningside,7,10,42003101400,2,10,5,3-7,40.48469686,-79.92607619
218,606619775,Joe Natoli Playground,Play Area 5 to 12,Playworld,SofSurfaces,f,1730,Chislett St,Morningside,7,10,42003101400,2,10,5,3-7,40.48457817,-79.92598109
310,404431525,Joseph Kukuruda Playground,Play Area 2 to 12,Playworld,SofSurfaces,f,9,Elmont St,Crafton Heights,2,28,42003281500,5,28,6,1-18,40.4394304,-80.05609507
23,1887342105,Kennard Playground,Swing 3 Bays,Miracle,SofSurfaces,t,2272,Reed St,Terrace Village,6,5,42003051000,3,5,2,2-10,40.44360891,-79.97392123
27,1022979936,Kennard Playground,Spring Toy - Fire Truck,Playworld,SofSurfaces,f,,Old Kirkpatrick St,Terrace Village,6,5,42003051000,3,5,2,2-10,40.44344695,-79.97399951
26,1585749916,Kennard Playground,Whirl,Gametime,SofSurfaces,f,,Old Kirkpatrick St,Terrace Village,6,5,42003051000,3,5,2,2-10,40.44339313,-79.97397756
25,183493377,Kennard Playground,Play Area 5 to 12,Little Tykes,SofSurfaces,f,,Old Kirkpatrick St,Terrace Village,6,5,42003051000,3,5,2,2-10,40.44354648,-79.97407412
303,978603567,Larimer Playground,Play Area 5 to 12,Playworld,SofSurfaces,f,541,McDonald St,Larimer,9,12,42003120400,2,12,5,3-12,40.46669796,-79.91352047
304,1459986839,Larimer Playground,Play Area 2 to 5,Playworld,SofSurfaces,f,541,McDonald St,Larimer,9,12,42003120400,2,12,5,3-12,40.4668037,-79.91353998
305,305416408,Larimer Playground,Spinner - Cozy Cocoon,Playworld,SofSurfaces,f,541,McDonald St,Larimer,9,12,42003120400,2,12,5,3-12,40.46677895,-79.91360586
221,1964960730,Lawn & Ophelia Playground,Play Area 5 to 12,Playworld,Tiles,f,,Ophelia St,South Oakland,6,4,42003040900,3,4,4,2-10,40.43552284,-79.96548485
222,1176920895,Lawn & Ophelia Playground,Swing 2 Bays,Playworld,Tiles,f,,Ophelia St,South Oakland,6,4,42003040900,3,4,4,2-10,40.43550057,-79.96522151
306,2094841207,Leolyn Playground,Play Area 2 to 12,Playworld,SofSurfaces,f,,Leolyn St,Carrick,4,29,42003290200,3,29,3,4-12,40.39927392,-79.98607452
307,2097059472,Leolyn Playground,Swing 3 Bays,Playworld,SofSurfaces,t,1623,Leolyn St,Carrick,4,29,42003290200,3,29,3,4-12,40.39935129,-79.9860477
431,597666093,Leolyn Playground,Wall Climber,Playworld,SofSurfaces,f,1623,Leolyn St,Carrick,4,29,42003290200,3,29,3,4-12,40.39934062,-79.98596462
430,1486361964,Leolyn Playground,Spinner - Cozy Cocoon,Playworld,SofSurfaces,f,1623,Leolyn St,Carrick,4,29,42003290200,3,29,3,4-12,40.39931202,-79.98597937
226,600819471,Leslie Playground,Play Area 2 to 5,Landscape Structures,SofSurfaces,f,4600,Butler St,Central Lawrenceville,7,9,42003090200,2,9,2,3-3,40.47274813,-79.95803029
225,75953798,Leslie Playground,Play Area 5 to 12,Landscape Structures,SofSurfaces,f,217,46th St,Central Lawrenceville,7,9,42003090200,2,9,2,3-3,40.47260519,-79.95814563
227,1288892471,Leslie Playground,Swing 3 Bays,Landscape Structures,SofSurfaces,t,213,46th St,Central Lawrenceville,7,9,42003090200,2,9,2,3-3,40.47272031,-79.95825219
28,327771001,Lewis Playground,Swing 4 Bays,Playworld,SofSurfaces,t,,Chatsworth Ave,Hazelwood,5,15,42003562900,3,15,4,2-13,40.41292816,-79.94462084
31,1037953285,Lewis Playground,Play Area 5 to 12,Playworld,SofSurfaces,f,,Chatsworth Ave,Hazelwood,5,15,42003562900,3,15,4,2-13,40.41284047,-79.94474422
529,1504366176,Lewis Playground,Play Area 5 to 12,Playworld,SofSurfaces,f,,Chatsworth Ave,Hazelwood,5,15,42003562900,3,15,4,2-13,40.41282407,-79.94473209
530,998626289,Lewis Playground,Swing 4 Bays,Playworld,SofSurfaces,f,,Chatsworth Ave,Hazelwood,5,15,42003562900,3,15,4,2-13,40.41286936,-79.94460577
29,2122201066,Lewis Playground,Play Area 2 to 12,Little Tykes,SofSurfaces,f,,Chatsworth Ave,Hazelwood,5,15,42003562900,3,15,4,2-13,40.4127829,-79.94461548
30,895893285,Lewis Playground,Play Area 2 to 5,Playworld,SofSurfaces,f,,Chatsworth Ave,Hazelwood,5,15,42003562900,3,15,4,2-13,40.41281941,-79.94455379
32,1897830582,Lewis Playground,Whirl,Gametime,SofSurfaces,f,112,Berwick St,Hazelwood,5,15,42003562900,3,15,4,2-13,40.4128974,-79.94479519
715,1788263784,Liberty Green Playground,Play Area 2 to 12,Kompan,,f,327,Princeton Pl,East Liberty,9,11,42003111500,2,11,5,3-10,40.46281861,-79.91968897
722,501159401,Liberty Green Playground,Play Area Preschool Workshop,Kompan,,f,,Princeton Pl,East Liberty,9,11,42003111500,2,11,5,3-10,40.46266258,-79.91966969
717,31871213,Liberty Green Playground,Spinner - Spica Junior,Kompan,,f,327,Princeton Pl,East Liberty,9,11,42003111500,2,11,5,3-10,40.46271903,-79.91977715
709,644527417,Liberty Green Playground,Spinner - Spica,Kompan,,f,341,Princeton Pl,East Liberty,9,11,42003111500,2,11,5,3-10,40.46301784,-79.91961848
720,1130439786,Liberty Green Playground,Slide - Preschool,Kompan,,f,,Princeton Pl,East Liberty,9,11,42003111500,2,11,5,3-10,40.46260935,-79.91976265
714,178849740,Liberty Green Playground,Play Area 5 to 12,Kompan,,f,155,Larimer Ave,East Liberty,9,11,42003111500,2,11,5,3-10,40.46298365,-79.91939208
711,1897310333,Liberty Green Playground,Spinner - Spica,Kompan,,f,341,Princeton Pl,East Liberty,9,11,42003111500,2,11,5,3-10,40.46306119,-79.91959212
712,1851926720,Liberty Green Playground,Rock-It,Kompan,,f,341,Princeton Pl,East Liberty,9,11,42003111500,2,11,5,3-10,40.46304203,-79.91956341
713,1718621939,Liberty Green Playground,Play Area 5 to 12,Kompan,,f,337,Princeton Pl,East Liberty,9,11,42003111500,2,11,5,3-10,40.46294337,-79.9195645
723,562586509,Liberty Green Playground,Play Area Preschool Home and Garden,Kompan,,f,,Princeton Pl,East Liberty,9,11,42003111500,2,11,5,3-10,40.46269464,-79.91962636
716,319913050,Liberty Green Playground,Play Area Preschool,Kompan,,f,327,Princeton Pl,East Liberty,9,11,42003111500,2,11,5,3-10,40.46274397,-79.91972761
708,143924316,Liberty Green Playground,Swing 1 Bay,Kompan,,t,351,Princeton Pl,East Liberty,9,11,42003111500,2,11,5,3-10,40.46311545,-79.91948923
719,761605112,Liberty Green Playground,Swing 2 Bays,Kompan,,t,327,Princeton Pl,East Liberty,9,11,42003111500,2,11,5,3-10,40.4626311,-79.91981654
707,669615808,Liberty Green Playground,Whirl - Supernova,Kompan,,f,355,Princeton Pl,East Liberty,9,11,42003111500,2,11,5,3-10,40.46316813,-79.91940927
706,456895022,Liberty Green Playground,Swing 3 Bays,Kompan,,f,359,Princeton Pl,East Liberty,9,11,42003111500,2,11,5,3-10,40.46324315,-79.91940105
710,264860869,Liberty Green Playground,Spinner - Spica,Kompan,,f,341,Princeton Pl,East Liberty,9,11,42003111500,2,11,5,3-10,40.46306441,-79.91962175
721,1065942835,Liberty Green Playground,Play Area Preschool Steam Engine,Kompan,,f,,Princeton Pl,East Liberty,9,11,42003111500,2,11,5,3-10,40.46266802,-79.91969637
718,1296052410,Liberty Green Playground,Spinner - Spica Junior,Kompan,,f,327,Princeton Pl,East Liberty,9,11,42003111500,2,11,5,3-10,40.46267666,-79.91980414
34,305630332,Lincoln Place Playground,Swing 2 Bays,Playworld,Pour in Place,f,5375,Cox Ave,Lincoln Place,5,31,42003310200,3,31,4,4-20,40.37012632,-79.91741781
37,1506352044,Lincoln Place Playground,Play Area 5 to 12,Playworld,Pour in Place,f,,Cox Ave,Lincoln Place,5,31,42003310200,3,31,4,4-20,40.36980274,-79.91738563
33,76479062,Lincoln Place Playground,Swing 2 Bays,Playworld,Pour in Place,f,,Cox Ave,Lincoln Place,5,31,42003310200,3,31,4,4-20,40.36979088,-79.91747146
36,1166638390,Lincoln Place Playground,Play Area 2 to 5,Playworld,Pour in Place,f,5375,Cox Ave,Lincoln Place,5,31,42003310200,3,31,4,4-20,40.37005658,-79.91747951
38,2010586170,Lincoln Place Playground,Whirl,Gametime,Pour in Place,f,5375,Cox Ave,Lincoln Place,5,31,42003310200,3,31,4,4-20,40.37002022,-79.91737758
322,2076331946,Lookout Street Playground,Play Area 2 to 12,Gametime,SofSurfaces,f,,Lookout St,Troy Hill,1,24,42003240600,1,24,1,1-2,40.46933125,-79.97710347
321,359702205,Lookout Street Playground,Swing 2 Bays,Gametime,SofSurfaces,t,,Lookout St,Troy Hill,1,24,42003240600,1,24,1,1-2,40.46923812,-79.97707524
323,1639055373,Lookout Street Playground,Spinner,Gametime,SofSurfaces,f,,Lookout St,Troy Hill,1,24,42003240600,1,24,1,1-2,40.46942678,-79.97708274
228,1241207456,Magee Playground,Play Area 5 to 12,Playworld,Greenpark Breakfall,f,745,Greenfield Ave,Greenfield,5,15,42003151700,3,15,4,2-15,40.42446499,-79.93714156
229,559833119,Magee Playground,Swing 2 Bays,Playworld,Greenpark Breakfall,t,745,Greenfield Ave,Greenfield,5,15,42003151700,3,15,4,2-15,40.42455948,-79.93718887
468,32098198,Magee Playground,Play Area 5 to 12,Playworld,Greenpark Breakfall,f,745,Greenfield Ave,Greenfield,5,15,42003151700,3,15,4,2-12,40.42447903,-79.93730891
469,1503875538,Magee Playground,Geo Climber,Playworld,Greenpark Breakfall,f,745,Greenfield Ave,Greenfield,5,15,42003151700,3,15,4,2-15,40.42455488,-79.93726809
232,2011909409,Manchester Playground,Play Area 2 to 5,Playworld,Tiles,f,,,Manchester,6,21,42003210700,1,21,1,1-8,40.45851161,-80.02580545
231,1528874739,Manchester Playground,Play Area 5 to 12,Playworld,Tiles,f,,,Manchester,6,21,42003210700,1,21,1,1-8,40.45849073,-80.02590671
230,1719727160,Manchester Playground,Swing 2 Bays,Playworld,Tiles,t,,,Manchester,6,21,42003210700,1,21,1,1-8,40.45852728,-80.02567068
78,93630603,Marmaduke Playground,Swing 3 Bays,Playworld,SofSurfaces,t,,Bonaventure Way,Brighton Heights,1,27,42003270100,1,27,1,1-14,40.48450322,-80.04205076
76,1306665184,Marmaduke Playground,Play Area 5 to 12,Playworld,SofSurfaces,f,1908,Marmaduke St,Brighton Heights,1,27,42003270100,1,27,1,1-14,40.48437929,-80.04268125
77,1992007755,Marmaduke Playground,Play Area 2 to 5,Playworld,SofSurfaces,f,1820,Marmaduke St,Brighton Heights,1,27,42003270100,1,27,1,1-14,40.48417911,-80.04243448
75,2016470900,Marmaduke Playground,Spring Toy - Turtle,Playworld,SofSurfaces,f,3827,Bonaventure Way,Brighton Heights,1,27,42003270100,1,27,1,1-14,40.48434776,-80.04241546
74,1517415220,Marmaduke Playground,Spring Toy - Squirrel,Playworld,SofSurfaces,f,1900,Marmaduke St,Brighton Heights,1,27,42003270100,1,27,1,1-14,40.48436445,-80.04246179
163,1007091395,Marshall-California Playground,Play Area 2 to 12,Iron Mountain Forge,Tiles,f,,Atmore St,Marshall-Shadeland,1,27,42003270400,1,27,1,1-9,40.46259204,-80.0304683
162,837114763,Marshall-California Playground,Play Area 2 to 5,Iron Mountain Forge,Tiles,f,,Atmore St,Marshall-Shadeland,1,27,42003270400,1,27,1,1-9,40.46251969,-80.03044879
105,2099773055,McBride Playground,Swing 2 Bays,Little Tykes,Pour in Place,f,1785,McBride Ave,Lincoln Place,5,31,42003310200,3,31,4,4-20,40.37056239,-79.9071483
102,757762215,McBride Playground,Swing 1 Bay,Little Tykes,Pour in Place,t,1785,McBride Ave,Lincoln Place,5,31,42003310200,3,31,4,4-20,40.37049701,-79.90755759
103,283931873,McBride Playground,Play Area 5 to 12,Little Tykes,Pour in Place,f,1785,McBride Ave,Lincoln Place,5,31,42003310200,3,31,4,4-20,40.37047,-79.90707479
104,337767679,McBride Playground,Play Area 2 to 5,Little Tykes,Pour in Place,f,1785,McBride Ave,Lincoln Place,5,31,42003310200,3,31,4,4-20,40.37035104,-79.90762235
234,509755316,McCandless Playground,Play Area 5 to 12,Playworld,Pour in Place,f,,McCandless Ave,Upper Lawrenceville,7,10,42003101100,2,10,2,3-5,40.48073131,-79.95259528
233,614040402,McCandless Playground,Swing 2 Bays,Playworld,Pour in Place,t,,McCandless Ave,Upper Lawrenceville,7,10,42003101100,2,10,2,3-5,40.48080179,-79.9526855
40,1212623462,McGonigle Playground,Play Area 2 to 5,Little Tykes,Pour in Place,f,3633,Allendale Cir,Sheraden,2,20,42003562500,5,20,6,1-16,40.45992915,-80.06510049
39,667249368,McGonigle Playground,Swing 3 Bays,Little Tykes,Pour in Place,t,3641,Allendale Cir,Sheraden,2,20,42003562500,5,20,6,1-16,40.46005408,-80.06511927
42,1591240909,McGonigle Playground,Whirl,Gametime,SofSurfaces,f,3607,Allendale Cir,Sheraden,2,20,42003562500,5,20,6,1-16,40.4595869,-80.06506026
41,575530050,McGonigle Playground,Play Area 5 to 12,Little Tykes,Pour in Place,f,3607,Allendale Cir,Sheraden,2,20,42003562500,5,20,6,1-16,40.45943298,-80.06517559
628,1304176946,McKinley Bausman Playground,Play Area 5 to 12,Playworld,SofSurfaces,f,623,Bausman St,Beltzhoover,4,18,42003562400,5,18,3,4-7,40.41290503,-79.99802882
164,316622525,McKinley Bausman Playground,Swing 4 Bays,Playworld,SofSurfaces,t,623,Bausman St,Beltzhoover,4,18,42003562400,5,18,3,4-7,40.413045,-79.99812146
629,805904424,McKinley Bausman Playground,Geo Climber,Playworld,SofSurfaces,f,623,Bausman St,Beltzhoover,4,18,42003562400,5,18,3,4-7,40.41292713,-79.9980006
165,421568793,McKinley Bausman Playground,Play Area 2 to 12,Playworld,SofSurfaces,f,623,Bausman St,Beltzhoover,4,18,42003562400,5,18,3,4-7,40.41297921,-79.99802815
236,808778103,McKinley Playground,Swing 3 Bays,Iron Mountain Forge,Engineered Wood Fiber,f,172,Amesbury St,Beltzhoover,4,18,42003562400,5,18,3,4-16,40.41393384,-80.00436589
237,1461566878,McKinley Playground,Play Area 2 to 5,Iron Mountain Forge,Engineered Wood Fiber,f,164,Amesbury St,Beltzhoover,4,18,42003562400,5,18,3,4-16,40.41387409,-80.00452539
238,1895053679,McKinley Playground,Play Area 5 to 12,Iron Mountain Forge,Engineered Wood Fiber,f,166,Amesbury St,Beltzhoover,4,18,42003562400,5,18,3,4-16,40.41395764,-80.00450344
596,1562753028,McKinley Upper Playground,Slide,,,f,260,Michigan St,Beltzhoover,4,18,42003562400,5,18,3,4-16,40.41572597,-80.00295067
340,221622993,McKnight Playground,Play Area 2 to 5,Iron Mountain Forge,SofSurfaces,f,1239,Faulsey Way,Manchester,6,21,42003210700,1,21,1,1-8,40.45199705,-80.02283028
342,98453938,McKnight Playground,Balance Beam,Little Tykes,SofSurfaces,f,1222,Page St,Manchester,6,21,42003210700,1,21,1,1-8,40.45205561,-80.02243329
341,793861937,McKnight Playground,Play Area 5 to 12,Iron Mountain Forge,SofSurfaces,f,1230,Page St,Manchester,6,21,42003210700,1,21,1,1-8,40.45201131,-80.02259357
339,759278149,McKnight Playground,Swing 2 Bays,Little Tykes,SofSurfaces,t,1235,Faulsey Way,Manchester,6,21,42003210700,1,21,1,1-8,40.45210409,-80.02275695
123,1426132858,Mellon Playground,Play Area 2 to 12,Little Tykes,Pour in Place,f,6577,5th Ave,Shadyside,8,7,42003070800,2,7,4,3-13,40.45399178,-79.91571894
126,318926819,Mellon Playground,Play Area 2 to 5,Little Tykes,Pour in Place,f,6559,5th Ave,Shadyside,8,7,42003070800,2,7,4,3-13,40.45398463,-79.91603735
125,1747969247,Mellon Playground,Play Area 2 to 5,Little Tykes,Pour in Place,f,6559,5th Ave,Shadyside,8,7,42003070800,2,7,4,2-17,40.45377017,-79.91597679
467,741783836,Mellon Playground,Whirl,Little Tykes,Pour in Place,f,6555,5th Ave,Shadyside,8,7,42003070800,2,7,4,2-17,40.45374249,-79.91604125
122,1106932108,Mellon Playground,Swing 5 Bays,Little Tykes,Pour in Place,t,6577,5th Ave,Shadyside,8,7,42003070800,2,7,4,2-17,40.45379882,-79.91569944
239,979343117,Monongahela Playground,Swing 2 Bays,Playworld,Greenpark Breakfall,f,3016,Josephine St,South Side Slopes,3,16,42003160800,3,16,3,4-22,40.42193647,-79.96576403
44,31441624,Moore Playground,Play Area 5 to 12,Little Tykes,SofSurfaces,f,1811,Pioneer Ave,Brookline,4,19,42003191700,5,19,6,4-26,40.40526905,-80.01439662
45,1993200878,Moore Playground,Whirl,Gametime,SofSurfaces,f,1807,Pioneer Ave,Brookline,4,19,42003191700,5,19,6,4-26,40.40534713,-80.01416593
43,1965824610,Moore Playground,Swing 4 Bays,Little Tykes,SofSurfaces,f,1807,Pioneer Ave,Brookline,4,19,42003191700,5,19,6,4-26,40.40537031,-80.01431347
198,482595045,Mt. Washington Playground,Play Area 2 to 5,Playworld,SofSurfaces,f,726,Kuhn St,Mount Washington,2,19,42003191400,5,19,3,4-27,40.42471288,-80.0132468
199,605577287,Mt. Washington Playground,Play Area 5 to 12,Playworld,SofSurfaces,f,726,Kuhn St,Mount Washington,2,19,42003191400,5,19,3,4-27,40.42461165,-80.01323607
197,918867210,Mt. Washington Playground,Swing 2 Bays,Little Tykes,Pour in Place,t,531,Norton St,Mount Washington,2,19,42003191400,5,19,3,4-27,40.4245355,-80.01346138
48,1057671825,Mutual Playground,Play Area 2 to 5,Playworld,Pour in Place,f,,Mutual St,Sheraden,2,20,42003202200,5,20,6,1-16,40.4521694,-80.06399347
49,226803667,Mutual Playground,Play Area 5 to 12,Playworld,Pour in Place,f,,Mutual St,Sheraden,2,20,42003202200,5,20,6,1-16,40.45222878,-80.06406662
50,441006702,Mutual Playground,Whirl,Gametime,Pour in Place,f,,Mutual St,Sheraden,2,20,42003202200,5,20,6,1-16,40.45221297,-80.063946
47,1688713772,Mutual Playground,Swing 2 Bays,Playworld,Pour in Place,f,,Mutual St,Sheraden,2,20,42003202200,5,20,6,1-16,40.4520859,-80.06409588
242,1772581,Nelson Mandela Playground,Play Area 2 to 5,Playworld,SofSurfaces,f,,N Evaline St,Garfield,9,10,42003101700,2,10,5,3-4,40.46599563,-79.9406016
241,1851660710,Nelson Mandela Playground,Play Area 5 to 12,Playworld,SofSurfaces,f,,N Evaline St,Garfield,9,10,42003101700,2,10,5,3-4,40.4659845,-79.9406845
240,1992265011,Nelson Mandela Playground,Swing 2 Bays,Playworld,SofSurfaces,t,,N Evaline St,Garfield,9,10,42003101700,2,10,5,3-4,40.46611838,-79.94057185
694,1213108026,Niagara Playground,Swing 2 Bays,Playworld,,t,,Craft Ave,South Oakland,3,4,42003040900,3,4,4,2-10,40.43475618,-79.9602272
244,1582311630,Niagara Playground,Play Area 5 to 12,Playworld,Pour in Place,f,,Craft Ave,South Oakland,3,4,42003040900,3,4,4,2-10,40.43482391,-79.96013359
695,1374295414,Niagara Playground,Geo Climber,Playworld,,f,,Craft Ave,South Oakland,3,4,42003040900,3,4,4,2-10,40.43479455,-79.96018265
243,1724844286,Niagara Playground,Play Area 2 to 5,Playworld,Pour in Place,f,,Craft Ave,South Oakland,3,4,42003040900,3,4,4,2-10,40.43471265,-79.96011079
35,271557890,North Ave. Playground,Wall Climber,Playworld,SofSurfaces,f,377,W North Ave,Allegheny Center,1,22,42003562700,1,22,1,1-7,40.45452597,-80.01030892
24,1641690354,North Ave. Playground,Play Area 5 to 12,Playworld,SofSurfaces,f,377,W North Ave,Allegheny Center,1,22,42003562700,1,22,1,1-7,40.45455035,-80.01032719
46,1051189585,North Ave. Playground,Stepping Pod - 5,,SofSurfaces,f,373,W North Ave,Allegheny Center,1,22,42003562700,1,22,1,1-7,40.45455378,-80.01027744
2,702514290,North Ave. Playground,Play Area 2 to 5,Playworld,SofSurfaces,f,377,W North Ave,Allegheny Center,1,22,42003562700,1,22,1,1-7,40.45452573,-80.01018758
13,222814256,North Ave. Playground,Play Area 2 to 5,Playworld,SofSurfaces,f,357,W North Ave,Allegheny Center,1,22,42003562700,1,22,1,1-7,40.45455617,-80.01010838
51,180947506,Oakwood Playground,Swing 3 Bays,Park Structures,SofSurfaces,t,1,Tarner St,Oakwood,2,28,42003562800,5,28,6,1-19,40.4262338,-80.06689598
52,381430928,Oakwood Playground,Play Area 2 to 5,Park Structures,SofSurfaces,f,,Celtic Way,Oakwood,2,28,42003562800,5,28,6,1-19,40.42611732,-80.06685349
53,1716504862,Oakwood Playground,Play Area 5 to 12,Park Structures,SofSurfaces,f,,Celtic Way,Oakwood,2,28,42003562800,5,28,6,1-19,40.42597117,-80.06683372
54,518314339,Oakwood Playground,Whirl,Gametime,SofSurfaces,f,,Celtic Way,Oakwood,2,28,42003562800,5,28,6,1-19,40.426078,-80.06680422
116,382605193,Olympia Playground,Wall Climber,Park Structures,Pour in Place,f,419,Olympia Rd,Mount Washington,2,19,42003190300,5,19,3,4-1,40.43140677,-80.01778972
115,2010092264,Olympia Playground,Play Area 5 to 12,Park Structures,Pour in Place,f,418,Olympia Rd,Mount Washington,2,19,42003190300,5,19,3,4-1,40.43148145,-80.01787555
114,99209710,Olympia Playground,Play Area 2 to 5,Park Structures,Pour in Place,f,421,Olympia Rd,Mount Washington,2,19,42003190300,5,19,3,4-1,40.43133379,-80.01781583
111,494641773,Olympia Playground,Swing 3 Bays,Park Structures,Pour in Place,t,422,Olympia Rd,Mount Washington,2,19,42003190300,5,19,3,4-1,40.4313218,-80.0179714
247,1204817383,Ormsby Playground,Play Area 2 to 12,,,f,59,S 22nd St,South Side Flats,3,16,42003160900,3,16,3,4-24,40.4294464,-79.97427218
248,925376947,Ormsby Playground,Play Area 5 to 12,,,f,59,S 22nd St,South Side Flats,3,16,42003160900,3,16,3,4-24,40.42938285,-79.97417025
245,1803785775,Ormsby Playground,Swing 3 Bays,,,t,59,S 22nd St,South Side Flats,3,16,42003160900,3,16,3,4-24,40.42936925,-79.97404419
107,509971321,Osceola Playground,Swing 2 Bays,Playworld,Pour in Place,f,539,Osceola St,Bloomfield,7,8,42003080400,2,8,5,3-1,40.45688847,-79.94224782
108,1605668414,Osceola Playground,Play Area 2 to 5,Playworld,Pour in Place,f,5222,Powhattan St,Bloomfield,7,8,42003080400,2,8,5,3-1,40.45671407,-79.94218686
109,471848784,Osceola Playground,Play Area 2 to 12,Playworld,Pour in Place,f,539,Osceola St,Bloomfield,7,8,42003080400,2,8,5,3-1,40.45687643,-79.94249446
106,789455567,Osceola Playground,Swing 1 Bay,Playworld,Pour in Place,t,5222,Powhattan St,Bloomfield,7,8,42003080400,2,8,5,3-1,40.45677344,-79.94215272
110,2016366335,Osceola Playground,Spring Toy - Dinosaur,Playworld,Pour in Place,f,5222,Powhattan St,Bloomfield,7,8,42003080400,2,8,5,3-1,40.4567476,-79.94210286
253,1251680252,Pauline Playground,Play Area 5 to 12,Landscape Structures,,f,2170,Pauline Ave,Beechview,4,19,42003192000,5,19,6,4-28,40.40473219,-80.02578748
251,2005900449,Pauline Playground,Swing 3 Bays,Landscape Structures,,t,2170,Pauline Ave,Beechview,4,19,42003192000,5,19,6,4-28,40.40480307,-80.02563459
254,1905344824,Pauline Playground,Wall Climber,Landscape Structures,,f,2170,Pauline Ave,Beechview,4,19,42003192000,5,19,6,4-28,40.4046636,-80.02591622
255,1380720601,Pauline Playground,Whirl,Landscape Structures,,f,2170,Pauline Ave,Beechview,4,19,42003192000,5,19,6,4-28,40.40461725,-80.02587062
252,1131214465,Pauline Playground,Climber - Overhead,Landscape Structures,,f,2170,Pauline Ave,Beechview,4,19,42003192000,5,19,6,4-28,40.40471703,-80.02563459
250,2016675772,Paul Sciullo Jr. Playground,Play Area 5 to 12,Playworld,SofSurfaces,f,333,Darsie St,Bloomfield,7,8,42003080200,2,8,5,3-1,40.46237749,-79.95320678
249,966495712,Paul Sciullo Jr. Playground,Swing 2 Bays,Playworld,SofSurfaces,t,336,Ella St,Bloomfield,7,8,42003080200,2,8,5,3-1,40.4623091,-79.9530673
258,392689238,Paulson Playground,Play Area 5 to 12,Playworld,Tiles,f,1322,Paulson Ave,Lincoln-Lemington-Belmar,9,12,42003120300,2,12,5,3-15,40.46904121,-79.90032968
259,463340350,Paulson Playground,Play Area 2 to 5,Playworld,Tiles,f,1322,Paulson Ave,Lincoln-Lemington-Belmar,9,12,42003120300,2,12,5,3-15,40.46913482,-79.90014998
256,77683640,Paulson Playground,Swing 2 Bays,Playworld,Tiles,t,1314,Paulson Ave,Lincoln-Lemington-Belmar,9,12,42003120300,2,12,5,3-15,40.46895261,-79.9006435
260,2126620429,Phillips Playground,Swing 3 Bays,Landscape Structures,Pour in Place,t,426,Sinton Ave,Carrick,4,29,42003290400,3,29,3,4-23,40.38803817,-79.99058604
261,1065583311,Phillips Playground,Play Area 2 to 5,Landscape Structures,Pour in Place,f,420,Sinton Ave,Carrick,4,29,42003290400,3,29,3,4-23,40.38813475,-79.99030319
262,2004541198,Phillips Playground,Play Area 5 to 12,Landscape Structures,Pour in Place,f,418,Sinton Ave,Carrick,4,29,42003290400,3,29,3,4-23,40.3883019,-79.99032026
214,1817195553,Pool Grove Playground,Play Area 5 to 12,Landscape Structures,Pour in Place,f,,Lake Dr,Highland Park,7,11,42003980100,2,11,5,3-9,40.48276713,-79.91031688
215,1606944973,Pool Grove Playground,Swing 2 Bays,Landscape Structures,Pour in Place,t,,Lake Dr,Highland Park,7,11,42003980100,2,11,5,3-9,40.48262376,-79.91025771
200,879959210,Ream Playground,Play Area 5 to 12,Playworld,SofSurfaces,f,345,Virginia Ave,Mount Washington,2,19,42003190300,5,19,3,4-27,40.43139203,-80.01324449
203,1390820849,Ream Playground,Play Area 2 to 5,Playworld,SofSurfaces,f,345,Virginia Ave,Mount Washington,2,19,42003190300,5,19,3,4-27,40.43128393,-80.01340302
202,1410457966,Ream Playground,Swing 2 Bays,Playworld,SofSurfaces,t,345,Virginia Ave,Mount Washington,2,19,42003190300,5,19,3,4-27,40.43125653,-80.01323474
216,657712800,Rhododendron Playground,Swing 2 Bays,Landscape Structures,Pour in Place,t,,Lake Dr,Highland Park,7,11,42003980100,2,11,5,3-9,40.47915681,-79.91061763
217,1663513685,Rhododendron Playground,Play Area 5 to 12,Landscape Structures,Pour in Place,f,,Lake Dr,Highland Park,7,11,42003980100,2,11,5,3-9,40.4792922,-79.91073223
370,1124510617,Riverview Playground,Play Area 5 to 12,Playworld,SofSurfaces,f,,Riverview Ave,Perry North,1,26,42003980400,1,26,1,1-15,40.48105542,-80.01780364
372,1726071444,Riverview Playground,Balance Beam - Sidewalk,Playworld,SofSurfaces,f,,Riverview Ave,Perry North,1,26,42003980400,1,26,1,1-15,40.48140243,-80.01790056
369,1488069760,Riverview Playground,Play Area 5 to 12,Playworld,SofSurfaces,f,,Riverview Ave,Perry North,1,26,42003980400,1,26,1,1-15,40.48105976,-80.01781437
366,1300672840,Riverview Playground,Swing 2 Bays,Playworld,SofSurfaces,f,,Riverview Ave,Perry North,1,26,42003980400,1,26,1,1-15,40.48124636,-80.01776251
367,139686053,Riverview Playground,Swing 2 Bays,Playworld,SofSurfaces,t,,Riverview Ave,Perry North,1,26,42003980400,1,26,1,1-15,40.48158069,-80.01802358
368,1510208793,Riverview Playground,Play Area 2 to 5,Playworld,SofSurfaces,f,,Riverview Ave,Perry North,1,26,42003980400,1,26,1,1-15,40.48155168,-80.01794043
72,914706002,Robert E. WIlliams Playground,Play Area 2 to 5,Playworld,Pour in Place,f,3500,Milwaukee St,Upper Hill,6,5,42003050600,3,5,2,2-22,40.45448376,-79.95965447
69,74420810,Robert E. WIlliams Playground,Swing 3 Bays,Playworld,SofSurfaces,t,3500,Milwaukee St,Upper Hill,6,5,42003050600,3,5,2,2-22,40.45450605,-79.95975344
71,635529346,Robert E. WIlliams Playground,Whirl,Gametime,SofSurfaces,f,775,Adelaide St,Upper Hill,6,5,42003050600,3,5,2,2-22,40.45428215,-79.95968666
70,709137145,Robert E. WIlliams Playground,Spring Toy - Fire Truck,,SofSurfaces,f,3500,Milwaukee St,Upper Hill,6,5,42003050600,3,5,2,2-22,40.45438853,-79.95975612
73,1870966773,Robert E. WIlliams Playground,Play Area 5 to 12,Playworld,Pour in Place,f,3500,Milwaukee St,Upper Hill,6,5,42003050600,3,5,2,2-22,40.45437738,-79.95967861
55,70543814,Roland Lockridge Playground,Swing 2 Bays,Playworld,Pour in Place,t,,Revenue St,New Homestead,5,31,42003310300,3,31,4,4-20,40.39404547,-79.92075656
58,1196821176,Roland Lockridge Playground,Whirl,Gametime,Pour in Place,f,,Revenue St,New Homestead,5,31,42003310300,3,31,4,4-20,40.39401339,-79.92088262
59,1029645849,Roland Lockridge Playground,Spring Toy - Butterfly,Playworld,Pour in Place,f,,Revenue St,New Homestead,5,31,42003310300,3,31,4,4-20,40.39395798,-79.92080084
60,88029867,Roland Lockridge Playground,Spring Toy - Butterfly,Playworld,Pour in Place,f,,Revenue St,New Homestead,5,31,42003310300,3,31,4,4-20,40.3939329,-79.92076426
56,452553055,Roland Lockridge Playground,Play Area 5 to 12,Playworld,Pour in Place,f,,Revenue St,New Homestead,5,31,42003310300,3,31,4,4-20,40.39390129,-79.92081289
330,1632240503,Schenley Anderson Playground,Slide,Big Toys,Pour in Place,f,,Panther Hollow Rd,Squirrel Hill South,5,14,42003980500,3,14,4,2-8,40.43578871,-79.94705374
331,1454081291,Schenley Anderson Playground,Slide,Big Toys,Pour in Place,f,,Panther Hollow Rd,Squirrel Hill South,5,14,42003980500,3,14,4,2-8,40.43562384,-79.94713674
324,1522739185,Schenley Anderson Playground,Swing 4 Bays,Big Toys,Pour in Place,t,,Panther Hollow Rd,Squirrel Hill South,5,14,42003980500,3,14,4,2-8,40.43552747,-79.94742125
325,472202524,Schenley Anderson Playground,Play Area 2 to 12,Big Toys,SofSurfaces,f,,Panther Hollow Rd,Squirrel Hill South,5,14,42003980500,3,14,4,2-8,40.43571919,-79.94715035
464,816777026,Schenley Anderson Playground,Whirl,,,f,,Panther Hollow Rd,Squirrel Hill South,5,14,42003980500,3,14,4,2-8,40.43562247,-79.94752293
326,853647845,Schenley Anderson Playground,Play Area 2 to 5,Big Toys,SofSurfaces,f,,Panther Hollow Rd,Squirrel Hill South,5,14,42003980500,3,14,4,2-8,40.43569061,-79.94714499
463,1110805194,Schenley Anderson Playground,Play Area 5 to 12,,,f,,Panther Hollow Rd,Squirrel Hill South,5,14,42003980500,3,14,4,2-8,40.43570946,-79.94740267
329,1361158803,Schenley Anderson Playground,Climber - Overhead,Playworld,Pour in Place,f,,Panther Hollow Rd,Squirrel Hill South,5,14,42003980500,3,14,4,2-8,40.43574295,-79.94748026
328,625612054,Schenley Anderson Playground,Spinner,Big Toys,Pour in Place,f,,Panther Hollow Rd,Squirrel Hill South,5,14,42003980500,3,14,4,2-8,40.43553546,-79.94769752
118,1575510391,Schenley Bartlett Playground,Play Area 2 to 5,Playworld,SofSurfaces,f,,Bartlett Rd,Squirrel Hill South,5,14,42003980500,3,14,4,2-8,40.43353324,-79.93581283
121,1336534375,Schenley Bartlett Playground,Climber - Crawl Tube,Playworld,SofSurfaces,f,,Bartlett Rd,Squirrel Hill South,5,14,42003980500,3,14,4,2-8,40.43347644,-79.93575524
119,1597813947,Schenley Bartlett Playground,Play Area 5 to 12,Playworld,SofSurfaces,f,,Bartlett Rd,Squirrel Hill South,5,14,42003980500,3,14,4,2-8,40.4334787,-79.93578199
117,679746593,Schenley Bartlett Playground,Swing 3 Bays,Playworld,SofSurfaces,t,,Bartlett Rd,Squirrel Hill South,5,14,42003980500,3,14,4,2-8,40.43345499,-79.93562215
120,2058841684,Schenley Bartlett Playground,Spinner - Cozy Cocoon,Playworld,SofSurfaces,f,,Bartlett Rd,Squirrel Hill South,5,14,42003980500,3,14,4,2-8,40.43349441,-79.93571055
379,1907171006,Schenley Oval Playground,Swing 3 Bays,Little Tykes,SofSurfaces,t,,Overlook Dr,Squirrel Hill South,5,14,42003980500,3,14,4,2-8,40.43110606,-79.94509864
380,1040595934,Schenley Oval Playground,Slide,Little Tykes,SofSurfaces,f,,Overlook Dr,Squirrel Hill South,5,14,42003980500,3,14,4,2-8,40.43116731,-79.94497916
4,14898932,Schenley Overlook Playground,Swing 2 Bays,Little Tykes,SofSurfaces,t,,Overlook Dr,Squirrel Hill South,5,14,42003980500,3,14,4,2-8,40.43212985,-79.94777445
5,204832406,Schenley Overlook Playground,Slide,Little Tykes,SofSurfaces,f,,Overlook Dr,Squirrel Hill South,5,14,42003980500,3,14,4,2-8,40.43221498,-79.9478172
63,463423917,Sheraden Lower Playground,Whirl,Gametime,Pour in Place,f,3285,Surban St,Sheraden,2,20,42003562500,5,20,6,1-16,40.45876626,-80.06013755
62,448161128,Sheraden Lower Playground,Play Area 5 to 12,Landscape Structures,Pour in Place,f,3283,Surban St,Sheraden,2,20,42003562500,5,20,6,1-16,40.45867357,-80.05994175
61,1235304045,Sheraden Lower Playground,Swing 3 Bays,Landscape Structures,Pour in Place,t,3285,Surban St,Sheraden,2,20,42003562500,5,20,6,1-16,40.45879924,-80.06005977
265,1188776003,Sheraden Upper Playground,Play Area 2 to 5,Landscape Structures,Pour in Place,f,3105,Ashlyn St,Sheraden,2,20,42003562500,5,20,6,1-16,40.45580262,-80.05729057
264,1906238702,Sheraden Upper Playground,Swing 2 Bays,Landscape Structures,Pour in Place,t,3113,Ashlyn St,Sheraden,2,20,42003562500,5,20,6,1-16,40.45587375,-80.05740054
65,2130272668,Southside Playground,Play Area 2 to 5,Gametime,Pour in Place,f,1633,St Patrick St,South Side Slopes,3,17,42003170600,3,17,3,4-22,40.42052406,-79.98163745
67,2141070879,Southside Playground,Whirl,Gametime,Pour in Place,f,1629,St Patrick St,South Side Slopes,3,17,42003170600,3,17,3,4-22,40.42059502,-79.98169914
66,343753654,Southside Playground,Play Area 5 to 12,Gametime,Pour in Place,f,2359,S 18th St,South Side Slopes,3,17,42003170600,3,17,3,4-22,40.42068104,-79.98166159
64,1253237632,Southside Playground,Swing 3 Bays,Gametime,Pour in Place,t,1633,St Patrick St,South Side Slopes,3,17,42003170600,3,17,3,4-22,40.42047668,-79.98167507
760,904290786,Spring Garden Ave Playground,Geo Climber,,Engineered Wood Fiber,f,844,Spring Garden Ave,East Allegheny,1,23,42003563200,1,23,1,1-5,40.45766129,-79.99620354
762,405052526,Spring Garden Ave Playground,Play Area 5 to 12,Playworld,Engineered Wood Fiber,f,844,Spring Garden Ave,East Allegheny,1,23,42003563200,1,23,1,1-5,40.45774802,-79.99620354
761,370549255,Spring Garden Ave Playground,Spring Toy - Fire Truck,,Engineered Wood Fiber,f,844,Spring Garden Ave,East Allegheny,1,23,42003563200,1,23,1,1-5,40.4576868,-79.99615593
266,887861656,Spring Hill Playground,Swing 3 Bays,Little Tykes,Tiles,t,1202,Romanhoff St,Spring Hill-City View,1,26,42003262000,1,26,1,1-11,40.47000194,-79.99371533
267,2117881589,Spring Hill Playground,Play Area 2 to 5,Little Tykes,Tiles,f,2310,Hespen St,Spring Hill-City View,1,26,42003262000,1,26,1,1-11,40.47014106,-79.99383237
269,951296718,Spring Hill Playground,Play Area 5 to 12,Little Tykes,Tiles,f,2310,Hespen St,Spring Hill-City View,1,26,42003262000,1,26,1,1-11,40.47016734,-79.99363389
68,593196479,Sue Murray Playground,Play Area 5 to 12,Playworld,SofSurfaces,f,415,Cedar Ave,Allegheny Center,1,22,42003562700,1,22,1,1-6,40.45161776,-80.00159422
57,326815427,Sue Murray Playground,Swing 2 Bays,Playworld,SofSurfaces,f,413,Cedar Ave,Allegheny Center,1,22,42003562700,1,22,1,1-6,40.45162795,-80.00150071
568,1263456194,Sue Murray Playground,Spinner - Cozy Cocoon,Playworld,SofSurfaces,f,415,Cedar Ave,Allegheny Center,1,22,42003562700,1,22,1,1-6,40.45157631,-80.00161592
566,810174215,Sue Murray Playground,Geo Climber,Playworld,SofSurfaces,f,437,Cedar Ave,Allegheny Center,1,22,42003562700,1,22,1,1-6,40.45167428,-80.00158373
90,590051453,Sue Murray Playground,Ladder Climber,Playworld,SofSurfaces,f,439,Cedar Ave,Allegheny Center,1,22,42003562700,1,22,1,1-6,40.45169655,-80.00150278
567,1920454213,Sue Murray Playground,Spinner,Playworld,SofSurfaces,f,415,Cedar Ave,Allegheny Center,1,22,42003562700,1,22,1,1-6,40.45164775,-80.00164006
79,403974922,Sue Murray Playground,Spring Toy - Seat,Playworld,SofSurfaces,f,413,Cedar Ave,Allegheny Center,1,22,42003562700,1,22,1,1-6,40.45169469,-80.00155155
343,1442531583,Swisshelm Playground,Swing 3 Bays,Playworld,Pour in Place,t,1276,Commercial St,Swisshelm Park,5,14,42003141100,3,14,4,2-19,40.42110554,-79.90174092
347,1028701765,Swisshelm Playground,Balance Beam,Playworld,SofSurfaces,f,,Nightengale Way,Swisshelm Park,5,14,42003141100,3,14,4,2-19,40.42098601,-79.9015969
344,492146724,Swisshelm Playground,Play Area 2 to 5,Playworld,Pour in Place,f,1265,Onondago St,Swisshelm Park,5,14,42003141100,3,14,4,2-19,40.42102364,-79.90183285
345,452508776,Swisshelm Playground,Play Area 5 to 12,Playworld,Pour in Place,f,,Nightengale Way,Swisshelm Park,5,14,42003141100,3,14,4,2-19,40.42090242,-79.90171632
348,677341323,Swisshelm Playground,Stepping Pod - 6,,,f,,Nightengale Way,Swisshelm Park,5,14,42003141100,3,14,4,2-19,40.42098796,-79.90159428
346,271414203,Swisshelm Playground,Whirl,Gametime,SofSurfaces,f,,Nightengale Way,Swisshelm Park,5,14,42003141100,3,14,4,2-19,40.4207868,-79.90193492
271,727748868,Townsend Playground,Play Area 2 to 5,Playworld,Greenpark Breakfall,f,817,Chartiers Ave,Elliott,2,20,42003562600,5,20,6,1-17,40.44322758,-80.04003005
270,504755196,Townsend Playground,Swing 3 Bays,Playworld,Greenpark Breakfall,t,817,Chartiers Ave,Elliott,2,20,42003562600,5,20,6,1-17,40.44294551,-80.04021292
272,1201742193,Townsend Playground,Play Area 5 to 12,Playworld,Greenpark Breakfall,f,817,Chartiers Ave,Elliott,2,20,42003562600,5,20,6,1-17,40.44310485,-80.04006223
630,2017890070,Townsend Playground,Play Area 5 to 12,Playworld,SofSurfaces,f,817,Chartiers Ave,Elliott,2,20,42003562600,5,20,6,1-17,40.44304435,-80.04006335
631,1687733904,Townsend Playground,Geo Climber,Playworld,SofSurfaces,f,817,Chartiers Ave,Elliott,2,20,42003562600,5,20,6,1-17,40.4429776,-80.04007295
632,1390428459,Townsend Playground,Swing 2 Bays,Playworld,SofSurfaces,t,817,Chartiers Ave,Elliott,2,20,42003562600,5,20,6,1-17,40.4429904,-80.04019867
633,1326701816,Townsend Playground,Play Area 5 to 12,Playworld,SofSurfaces,f,817,Chartiers Ave,Elliott,2,20,42003562600,5,20,6,1-17,40.44297485,-80.04026685
84,315946376,Tropical Playground,Spring Toy - Motorcycle,Park Structures,Pour in Place,f,855,Tropical Ave,Beechview,4,19,42003191600,5,19,6,4-28,40.4222315,-80.02436225
82,330479870,Tropical Playground,Play Area 5 to 12,Park Structures,Pour in Place,f,855,Tropical Ave,Beechview,4,19,42003191600,5,19,6,4-28,40.422354,-80.02426666
83,1055096476,Tropical Playground,Spring Toy - Pony,Park Structures,Pour in Place,f,,Tropical Ave,Beechview,4,19,42003191600,5,19,6,4-28,40.42218695,-80.02435981
80,755015874,Tropical Playground,Swing 3 Bays,Park Structures,Pour in Place,t,855,Tropical Ave,Beechview,4,19,42003191600,5,19,6,4-28,40.42210458,-80.02403087
81,351355361,Tropical Playground,Play Area 2 to 5,Park Structures,Pour in Place,f,855,Tropical Ave,Beechview,4,19,42003191600,5,19,6,4-28,40.42215538,-80.02429105
274,1353929468,Tustin Playground,Play Area 5 to 12,Playworld,SofSurfaces,f,,Tustin St,Bluff,6,1,42003010300,3,1,2,2-1,40.4367073,-79.97650812
273,1804500944,Tustin Playground,Swing 2 Bays,Playworld,SofSurfaces,t,,Tustin St,Bluff,6,1,42003010300,3,1,2,2-1,40.43665961,-79.9765898
275,362459775,Vanucci Playground,Play Area 2 to 5,Little Tykes,SofSurfaces,f,1251,Westfield St,Beechview,4,19,42003191600,5,19,6,4-28,40.41480009,-80.01900472
276,1715217207,Vanucci Playground,Play Area 5 to 12,Little Tykes,SofSurfaces,f,1250,Orangewood Ave,Beechview,4,19,42003191600,5,19,6,4-28,40.41472224,-80.01894303
277,688467713,Vanucci Playground,Swing 2 Bays,Little Tykes,SofSurfaces,t,1251,Westfield St,Beechview,4,19,42003191600,5,19,6,4-28,40.41470379,-80.01910324
3,1267038491,Vietnam Veteran's Playground,Slide,Little Tykes,SofSurfaces,f,108,Panther Hollow Rd,Squirrel Hill South,5,14,42003980500,3,14,4,2-8,40.43418465,-79.9443233
381,332724058,Vietnam Veteran's Playground,Swing 3 Bays,Little Tykes,SofSurfaces,t,110,Panther Hollow Rd,Squirrel Hill South,5,14,42003980500,3,14,4,2-8,40.43427297,-79.94422101
280,54307827,Vincennes Playground,Play Area 2 to 5,Little Tykes,Pour in Place,f,2837,Orbin St,Middle Hill,6,5,42003050100,3,5,2,2-5,40.45125237,-79.96736884
281,1856987232,Vincennes Playground,Play Area 5 to 12,Little Tykes,Pour in Place,f,2850,Webster Ave,Middle Hill,6,5,42003050100,3,5,2,2-5,40.4513705,-79.9674654
278,861683517,Vincennes Playground,Swing 2 Bays,Little Tykes,Pour in Place,t,2837,Orbin St,Middle Hill,6,5,42003050100,3,5,2,2-5,40.45119437,-79.96747881
283,1196616370,Wabash Playground,Play Area 2 to 5,Playworld,Pour in Place,f,51,Wabash St,West End,2,20,42003562600,5,20,6,1-17,40.4396993,-80.03404831
284,2110913434,Wabash Playground,Play Area 5 to 12,Playworld,Pour in Place,f,47,Wabash St,West End,2,20,42003562600,5,20,6,1-17,40.43963168,-80.03409391
282,2058828127,Wabash Playground,Swing 3 Bays,Playworld,Pour in Place,t,49,Wabash St,West End,2,20,42003562600,5,20,6,1-17,40.43979209,-80.03391176
286,1578503764,Warrington Playground,Swing 2 Bays,Playworld,SofSurfaces,t,329,E Warrington Ave,Beltzhoover,3,18,42003562400,5,18,3,4-5,40.42140561,-80.00122691
285,1470815749,Warrington Playground,Play Area 5 to 12,Playworld,SofSurfaces,f,329,E Warrington Ave,Beltzhoover,3,18,42003562400,5,18,3,4-5,40.42125154,-80.0012196
169,2133321350,West End Playground,Play Area 2 to 12,Playworld,Pour in Place,f,,West End Park Dr,Elliott,2,20,42003562600,5,20,6,1-17,40.43757092,-80.03763784
167,1236745223,West End Playground,Swing 2 Bays,Playworld,SofSurfaces,t,,West End Park Dr,Elliott,2,20,42003562600,5,20,6,1-17,40.43773653,-80.03724892
289,309168150,Westinghouse Playground,Swing 2 Bays,Little Tykes,SofSurfaces,t,398,N Murtland St,Point Breeze North,9,14,42003140500,2,14,4,3-14,40.45290843,-79.90333692
287,1849410074,Westinghouse Playground,Play Area 5 to 12,Little Tykes,SofSurfaces,f,398,N Murtland St,Point Breeze North,9,14,42003140500,2,14,4,3-14,40.45293747,-79.90312506
288,821532909,Westinghouse Playground,Play Area 2 to 5,Little Tykes,SofSurfaces,f,7051,Thomas Blvd,Point Breeze North,9,14,42003140500,2,14,4,3-14,40.45272998,-79.90318401
143,972268905,West Penn Playground,Play Area 5 to 12,Gametime,Tiles,f,418,30th St,Polish Hill,7,6,42003060500,6,6,2,2-6,40.45615357,-79.9701793
144,1652696845,West Penn Playground,Spring Toy - Pony,Gametime,Tiles,f,416,30th St,Polish Hill,7,6,42003060500,6,6,2,2-6,40.45622222,-79.97016954
141,1871620508,West Penn Playground,Swing 3 Bays,Gametime,Tiles,t,2978,Brereton St,Polish Hill,7,6,42003060500,6,6,2,2-6,40.45615401,-79.97039827
142,2037338473,West Penn Playground,Play Area 2 to 5,Gametime,Tiles,f,408,30th St,Polish Hill,7,6,42003060500,6,6,2,2-6,40.45625605,-79.9702471
705,321505073,Wightman Playground,Play Area 5 to 12,Playworld,,f,5637,Solway St,Squirrel Hill North,8,14,42003140300,3,14,4,2-18,40.4433334,-79.92655535
703,790116834,Wightman Playground,Geo Climber,Playworld,,f,5632,Wilkins Ave,Squirrel Hill North,8,14,42003140300,3,14,4,2-18,40.44352232,-79.92663742
696,407934325,Wightman Playground,Slide,,,f,1328,S Negley Ave,Squirrel Hill North,8,14,42003140300,3,14,4,2-18,40.44309595,-79.9263996
697,1894981385,Wightman Playground,Stepping Pod - 5,,,f,1322,S Negley Ave,Squirrel Hill North,8,14,42003140300,3,14,4,2-18,40.44319517,-79.92640867
698,506464121,Wightman Playground,Spinner - Cozy Cocoon,,,f,1316,S Negley Ave,Squirrel Hill North,8,14,42003140300,3,14,4,2-18,40.4433977,-79.92654648
700,1391151449,Wightman Playground,Play Area 2 to 5,,,f,1310,S Negley Ave,Squirrel Hill North,8,14,42003140300,3,14,4,2-18,40.44345147,-79.92657401
699,550411981,Wightman Playground,Swing 4 Bays,,,t,1314,S Negley Ave,Squirrel Hill North,8,14,42003140300,3,14,4,2-18,40.4434455,-79.92650902
702,968276385,Wightman Playground,Geo Climber,Playworld,,f,5638,Wilkins Ave,Squirrel Hill North,8,14,42003140300,3,14,4,2-18,40.44351208,-79.9265958
701,575854207,Wightman Playground,Geo Climber,Playworld,,f,5638,Wilkins Ave,Squirrel Hill North,8,14,42003140300,3,14,4,2-18,40.44349837,-79.92658522
704,1097927944,Wightman Playground,Whirl,Playworld,,f,1318,S Negley Ave,Squirrel Hill North,8,14,42003140300,3,14,4,2-18,40.44337533,-79.92647468
292,1657620590,Winters Playground,Play Area 5 to 12,Playworld,Tiles,f,1852,Baldauf St,South Side Slopes,3,17,42003170600,3,17,3,4-3,40.42298379,-79.9811532
291,37682620,Winters Playground,Swing 2 Bays,Playworld,Tiles,t,,Yard Way,South Side Slopes,3,17,42003170600,3,17,3,4-3,40.42289283,-79.98118978
293,966869118,Winters Playground,Play Area 2 to 5,Playworld,Tiles,f,,Yard Way,South Side Slopes,3,17,42003170600,3,17,3,4-3,40.42293831,-79.98099257
294,1770277700,Woods Run Playground,Swing 2 Bays,Playworld,Pour in Place,t,,Central Ave,Marshall-Shadeland,1,27,42003271500,1,27,1,1-14,40.47632334,-80.02940375
296,256760608,Woods Run Playground,Play Area 5 to 12,Playworld,Pour in Place,f,,Central Ave,Marshall-Shadeland,1,27,42003271500,1,27,1,1-14,40.47643277,-80.02925744
295,168601576,Woods Run Playground,Play Area 2 to 5,Playworld,Pour in Place,f,,Central Ave,Marshall-Shadeland,1,27,42003271500,1,27,1,1-14,40.47628253,-80.02924525
